<?xml version="1.0" encoding="UTF-8"?>
<ndm xmlns:xsi="http://www.w3.org/2001/XMLSchema-instance" xsi:noNamespaceSchemaLocation="https://sanaregistry.org/r/ndmxml_unqualified/ndmxml-2.0.0-master-2.0.xsd">
<omm id="CCSDS_OMM_VERS" version="2.0">
<header><CREATION_DATE/><ORIGINATOR/></header><body><segment><metadata><OBJECT_NAME>STARLINK-4500</OBJECT_NAME><OBJECT_ID>2022-097AB</OBJECT_ID><CENTER_NAME>EARTH</CENTER_NAME><REF_FRAME>TEME</REF_FRAME><TIME_SYSTEM>UTC</TIME_SYSTEM><MEAN_ELEMENT_THEORY>SGP4</MEAN_ELEMENT_THEORY></metadata><data><meanElements><EPOCH>2022-08-29T14:00:01.000224</EPOCH><MEAN_MOTION>15.73117325</MEAN_MOTION><ECCENTRICITY>.0001162</ECCENTRICITY><INCLINATION>53.2197</INCLINATION><RA_OF_ASC_NODE>152.0931</RA_OF_ASC_NODE><ARG_OF_PERICENTER>85.0342</ARG_OF_PERICENTER><MEAN_ANOMALY>356.5856</MEAN_ANOMALY></meanElements><tleParameters><EPHEMERIS_TYPE>0</EPHEMERIS_TYPE><CLASSIFICATION_TYPE>U</CLASSIFICATION_TYPE><NORAD_CAT_ID>53413</NORAD_CAT_ID><ELEMENT_SET_NO>999</ELEMENT_SET_NO><REV_AT_EPOCH>130</REV_AT_EPOCH><BSTAR>.531E-3</BSTAR><MEAN_MOTION_DOT>.74299E-3</MEAN_MOTION_DOT><MEAN_MOTION_DDOT>0</MEAN_MOTION_DDOT></tleParameters></data></segment></body></omm>
<omm id="CCSDS_OMM_VERS" version="2.0">
<header><CREATION_DATE/><ORIGINATOR/></header><body><segment><metadata><OBJECT_NAME>STARLINK-4304</OBJECT_NAME><OBJECT_ID>2022-097AC</OBJECT_ID><CENTER_NAME>EARTH</CENTER_NAME><REF_FRAME>TEME</REF_FRAME><TIME_SYSTEM>UTC</TIME_SYSTEM><MEAN_ELEMENT_THEORY>SGP4</MEAN_ELEMENT_THEORY></metadata><data><meanElements><EPOCH>2022-08-29T14:00:01.000224</EPOCH><MEAN_MOTION>15.73125642</MEAN_MOTION><ECCENTRICITY>.0001195</ECCENTRICITY><INCLINATION>53.2195</INCLINATION><RA_OF_ASC_NODE>152.0895</RA_OF_ASC_NODE><ARG_OF_PERICENTER>93.0211</ARG_OF_PERICENTER><MEAN_ANOMALY>350.3309</MEAN_ANOMALY></meanElements><tleParameters><EPHEMERIS_TYPE>0</EPHEMERIS_TYPE><CLASSIFICATION_TYPE>U</CLASSIFICATION_TYPE><NORAD_CAT_ID>53414</NORAD_CAT_ID><ELEMENT_SET_NO>999</ELEMENT_SET_NO><REV_AT_EPOCH>130</REV_AT_EPOCH><BSTAR>.41226E-3</BSTAR><MEAN_MOTION_DOT>.5745E-3</MEAN_MOTION_DOT><MEAN_MOTION_DDOT>0</MEAN_MOTION_DDOT></tleParameters></data></segment></body></omm>
<omm id="CCSDS_OMM_VERS" version="2.0">
<header><CREATION_DATE/><ORIGINATOR/></header><body><segment><metadata><OBJECT_NAME>STARLINK-4479</OBJECT_NAME><OBJECT_ID>2022-097AD</OBJECT_ID><CENTER_NAME>EARTH</CENTER_NAME><REF_FRAME>TEME</REF_FRAME><TIME_SYSTEM>UTC</TIME_SYSTEM><MEAN_ELEMENT_THEORY>SGP4</MEAN_ELEMENT_THEORY></metadata><data><meanElements><EPOCH>2022-08-29T16:00:00.999936</EPOCH><MEAN_MOTION>15.73188102</MEAN_MOTION><ECCENTRICITY>.0000964</ECCENTRICITY><INCLINATION>53.2199</INCLINATION><RA_OF_ASC_NODE>151.6763</RA_OF_ASC_NODE><ARG_OF_PERICENTER>75.3216</ARG_OF_PERICENTER><MEAN_ANOMALY>120.8859</MEAN_ANOMALY></meanElements><tleParameters><EPHEMERIS_TYPE>0</EPHEMERIS_TYPE><CLASSIFICATION_TYPE>U</CLASSIFICATION_TYPE><NORAD_CAT_ID>53415</NORAD_CAT_ID><ELEMENT_SET_NO>999</ELEMENT_SET_NO><REV_AT_EPOCH>349</REV_AT_EPOCH><BSTAR>.58635E-3</BSTAR><MEAN_MOTION_DOT>.82438E-3</MEAN_MOTION_DOT><MEAN_MOTION_DDOT>0</MEAN_MOTION_DDOT></tleParameters></data></segment></body></omm>
<omm id="CCSDS_OMM_VERS" version="2.0">
<header><CREATION_DATE/><ORIGINATOR/></header><body><segment><metadata><OBJECT_NAME>STARLINK-4480</OBJECT_NAME><OBJECT_ID>2022-097AE</OBJECT_ID><CENTER_NAME>EARTH</CENTER_NAME><REF_FRAME>TEME</REF_FRAME><TIME_SYSTEM>UTC</TIME_SYSTEM><MEAN_ELEMENT_THEORY>SGP4</MEAN_ELEMENT_THEORY></metadata><data><meanElements><EPOCH>2022-08-29T16:00:00.999936</EPOCH><MEAN_MOTION>15.73190533</MEAN_MOTION><ECCENTRICITY>.000124</ECCENTRICITY><INCLINATION>53.2204</INCLINATION><RA_OF_ASC_NODE>151.6690</RA_OF_ASC_NODE><ARG_OF_PERICENTER>85.4518</ARG_OF_PERICENTER><MEAN_ANOMALY>112.5408</MEAN_ANOMALY></meanElements><tleParameters><EPHEMERIS_TYPE>0</EPHEMERIS_TYPE><CLASSIFICATION_TYPE>U</CLASSIFICATION_TYPE><NORAD_CAT_ID>53416</NORAD_CAT_ID><ELEMENT_SET_NO>999</ELEMENT_SET_NO><REV_AT_EPOCH>349</REV_AT_EPOCH><BSTAR>-.15861E-3</BSTAR><MEAN_MOTION_DOT>-.2281E-3</MEAN_MOTION_DOT><MEAN_MOTION_DDOT>0</MEAN_MOTION_DDOT></tleParameters></data></segment></body></omm>
<omm id="CCSDS_OMM_VERS" version="2.0">
<header><CREATION_DATE/><ORIGINATOR/></header><body><segment><metadata><OBJECT_NAME>STARLINK-4484</OBJECT_NAME><OBJECT_ID>2022-097AF</OBJECT_ID><CENTER_NAME>EARTH</CENTER_NAME><REF_FRAME>TEME</REF_FRAME><TIME_SYSTEM>UTC</TIME_SYSTEM><MEAN_ELEMENT_THEORY>SGP4</MEAN_ELEMENT_THEORY></metadata><data><meanElements><EPOCH>2022-08-29T16:00:00.999936</EPOCH><MEAN_MOTION>15.73162107</MEAN_MOTION><ECCENTRICITY>.0001093</ECCENTRICITY><INCLINATION>53.2196</INCLINATION><RA_OF_ASC_NODE>151.6747</RA_OF_ASC_NODE><ARG_OF_PERICENTER>83.0310</ARG_OF_PERICENTER><MEAN_ANOMALY>113.7339</MEAN_ANOMALY></meanElements><tleParameters><EPHEMERIS_TYPE>0</EPHEMERIS_TYPE><CLASSIFICATION_TYPE>U</CLASSIFICATION_TYPE><NORAD_CAT_ID>53417</NORAD_CAT_ID><ELEMENT_SET_NO>999</ELEMENT_SET_NO><REV_AT_EPOCH>349</REV_AT_EPOCH><BSTAR>.60704E-3</BSTAR><MEAN_MOTION_DOT>.85303E-3</MEAN_MOTION_DOT><MEAN_MOTION_DDOT>0</MEAN_MOTION_DDOT></tleParameters></data></segment></body></omm>
<omm id="CCSDS_OMM_VERS" version="2.0">
<header><CREATION_DATE/><ORIGINATOR/></header><body><segment><metadata><OBJECT_NAME>STARLINK-4481</OBJECT_NAME><OBJECT_ID>2022-097AG</OBJECT_ID><CENTER_NAME>EARTH</CENTER_NAME><REF_FRAME>TEME</REF_FRAME><TIME_SYSTEM>UTC</TIME_SYSTEM><MEAN_ELEMENT_THEORY>SGP4</MEAN_ELEMENT_THEORY></metadata><data><meanElements><EPOCH>2022-08-29T14:00:01.000224</EPOCH><MEAN_MOTION>15.73115187</MEAN_MOTION><ECCENTRICITY>.0000966</ECCENTRICITY><INCLINATION>53.2198</INCLINATION><RA_OF_ASC_NODE>151.9774</RA_OF_ASC_NODE><ARG_OF_PERICENTER>93.2798</ARG_OF_PERICENTER><MEAN_ANOMALY>44.4784</MEAN_ANOMALY></meanElements><tleParameters><EPHEMERIS_TYPE>0</EPHEMERIS_TYPE><CLASSIFICATION_TYPE>U</CLASSIFICATION_TYPE><NORAD_CAT_ID>53418</NORAD_CAT_ID><ELEMENT_SET_NO>999</ELEMENT_SET_NO><REV_AT_EPOCH>130</REV_AT_EPOCH><BSTAR>.55983E-3</BSTAR><MEAN_MOTION_DOT>.78397E-3</MEAN_MOTION_DOT><MEAN_MOTION_DDOT>0</MEAN_MOTION_DDOT></tleParameters></data></segment></body></omm>
<omm id="CCSDS_OMM_VERS" version="2.0">
<header><CREATION_DATE/><ORIGINATOR/></header><body><segment><metadata><OBJECT_NAME>STARLINK-4476</OBJECT_NAME><OBJECT_ID>2022-097AH</OBJECT_ID><CENTER_NAME>EARTH</CENTER_NAME><REF_FRAME>TEME</REF_FRAME><TIME_SYSTEM>UTC</TIME_SYSTEM><MEAN_ELEMENT_THEORY>SGP4</MEAN_ELEMENT_THEORY></metadata><data><meanElements><EPOCH>2022-08-29T16:00:00.999936</EPOCH><MEAN_MOTION>15.73167175</MEAN_MOTION><ECCENTRICITY>.0001085</ECCENTRICITY><INCLINATION>53.2194</INCLINATION><RA_OF_ASC_NODE>151.6725</RA_OF_ASC_NODE><ARG_OF_PERICENTER>80.0978</ARG_OF_PERICENTER><MEAN_ANOMALY>117.3520</MEAN_ANOMALY></meanElements><tleParameters><EPHEMERIS_TYPE>0</EPHEMERIS_TYPE><CLASSIFICATION_TYPE>U</CLASSIFICATION_TYPE><NORAD_CAT_ID>53419</NORAD_CAT_ID><ELEMENT_SET_NO>999</ELEMENT_SET_NO><REV_AT_EPOCH>349</REV_AT_EPOCH><BSTAR>.62847E-3</BSTAR><MEAN_MOTION_DOT>.88389E-3</MEAN_MOTION_DOT><MEAN_MOTION_DDOT>0</MEAN_MOTION_DDOT></tleParameters></data></segment></body></omm>
<omm id="CCSDS_OMM_VERS" version="2.0">
<header><CREATION_DATE/><ORIGINATOR/></header><body><segment><metadata><OBJECT_NAME>STARLINK-4552</OBJECT_NAME><OBJECT_ID>2022-097AJ</OBJECT_ID><CENTER_NAME>EARTH</CENTER_NAME><REF_FRAME>TEME</REF_FRAME><TIME_SYSTEM>UTC</TIME_SYSTEM><MEAN_ELEMENT_THEORY>SGP4</MEAN_ELEMENT_THEORY></metadata><data><meanElements><EPOCH>2022-08-29T14:00:01.000224</EPOCH><MEAN_MOTION>15.73174042</MEAN_MOTION><ECCENTRICITY>.0001131</ECCENTRICITY><INCLINATION>53.2199</INCLINATION><RA_OF_ASC_NODE>152.0807</RA_OF_ASC_NODE><ARG_OF_PERICENTER>96.9114</ARG_OF_PERICENTER><MEAN_ANOMALY>351.2501</MEAN_ANOMALY></meanElements><tleParameters><EPHEMERIS_TYPE>0</EPHEMERIS_TYPE><CLASSIFICATION_TYPE>U</CLASSIFICATION_TYPE><NORAD_CAT_ID>53420</NORAD_CAT_ID><ELEMENT_SET_NO>999</ELEMENT_SET_NO><REV_AT_EPOCH>130</REV_AT_EPOCH><BSTAR>.53428E-3</BSTAR><MEAN_MOTION_DOT>.7495E-3</MEAN_MOTION_DOT><MEAN_MOTION_DDOT>0</MEAN_MOTION_DDOT></tleParameters></data></segment></body></omm>
<omm id="CCSDS_OMM_VERS" version="2.0">
<header><CREATION_DATE/><ORIGINATOR/></header><body><segment><metadata><OBJECT_NAME>STARLINK-4545</OBJECT_NAME><OBJECT_ID>2022-097AK</OBJECT_ID><CENTER_NAME>EARTH</CENTER_NAME><REF_FRAME>TEME</REF_FRAME><TIME_SYSTEM>UTC</TIME_SYSTEM><MEAN_ELEMENT_THEORY>SGP4</MEAN_ELEMENT_THEORY></metadata><data><meanElements><EPOCH>2022-08-29T14:00:01.000224</EPOCH><MEAN_MOTION>15.73189351</MEAN_MOTION><ECCENTRICITY>.0001108</ECCENTRICITY><INCLINATION>53.2197</INCLINATION><RA_OF_ASC_NODE>152.0831</RA_OF_ASC_NODE><ARG_OF_PERICENTER>90.4764</ARG_OF_PERICENTER><MEAN_ANOMALY>355.9162</MEAN_ANOMALY></meanElements><tleParameters><EPHEMERIS_TYPE>0</EPHEMERIS_TYPE><CLASSIFICATION_TYPE>U</CLASSIFICATION_TYPE><NORAD_CAT_ID>53421</NORAD_CAT_ID><ELEMENT_SET_NO>999</ELEMENT_SET_NO><REV_AT_EPOCH>130</REV_AT_EPOCH><BSTAR>.5012E-3</BSTAR><MEAN_MOTION_DOT>.70278E-3</MEAN_MOTION_DOT><MEAN_MOTION_DDOT>0</MEAN_MOTION_DDOT></tleParameters></data></segment></body></omm>

</ndm>
